NUVIEW BRAVO            
1 62457U 24252D   26165.17315571 -.00000206  00000+0  00000+0 0  9996
2 62457   0.0692 150.4075 0001799 331.2656 120.0258  1.00270451  3761
THURAYA-4               
1 62483U 25001A   26165.19846002  .00000148  00000+0  00000+0 0  9992
2 62483   0.0219  55.1265 0000258 216.2436 106.8868  1.00271700  4144
SHIJIAN-25 (SJ-25)      
1 62485U 25002A   26164.77108918 -.00000344  00000+0  00000+0 0  9994
2 62485   5.1048  61.1838 0052236 173.2448  72.5687  1.00269176  5326
TJS-14                  
1 62804U 25017A   26165.19326000  .00000125  00000+0  00000+0 0  9992
2 62804   0.7896 295.4109 0000967 289.7777 125.2539  1.00272968  5244
SPAINSAT NG I           
1 62852U 25021A   26165.19542668  .00000160  00000+0  00000+0 0  9999
2 62852   0.0152 334.1683 0000237 288.7793  98.9084  1.00269507  3952
QZS-6 (MICHIBIKI-6)     
1 62876U 25023A   26165.06499458 -.00000224  00000+0  00000+0 0  9993
2 62876   0.0461  66.6220 0001705  23.5758 286.0955  1.00271476  4914
ZHONGXING-10R           
1 63075U 25036A   26165.06898126 -.00000343  00000+0  00000+0 0  9996
2 63075   0.0325 247.4670 0003446 253.2141 257.0503  1.00273166  4921
TJS-15                  
1 63157U 25045A   26164.73833023 -.00000254  00000+0  00000+0 0  9996
2 63157   0.2796  85.4960 0004685 296.5136 240.2268  1.00272543  4726
TIANLIAN 2-04           
1 63361U 25062A   26164.96035697 -.00000122  00000+0  00000+0 0  9992
2 63361   4.3834 274.4888 0031724  10.2947  43.2625  1.00271678  4574
TJS-16                  
1 63397U 25064A   26164.65112330 -.00000095  00000+0  00000+0 0  9998
2 63397   1.0888  81.4744 0003372 288.9856 286.5162  1.00271351  4356
TJS-17                  
1 63524U 25073A   26164.65190330 -.00000059  00000+0  00000+0 0  9996
2 63524   1.0546  82.7223 0002099 295.8246 282.6321  1.00271862  4250
TIANLIAN 2-05           
1 63662U 25084A   26165.12238980  .00000137  00000+0  00000+0 0  9994
2 63662   4.4593 279.8716 0003107 146.3928 260.5873  1.00269039  4357
TJS-19                  
1 63924U 25097A   26164.74058086 -.00000266  00000+0  00000+0 0  9997
2 63924   3.2925 317.3828 0002297 240.9676 111.5152  1.00266676  4108
CHINASAT 3B             
1 64062U 25106A   26165.32886530 -.00000037  00000+0  00000+0 0  9996
2 64062   0.0285 100.5780 0002802  21.7353  66.0309  1.00271243  4030
SXM-10                  
1 64290U 25122A   26165.15002934 -.00000008  00000+0  00000+0 0  9994
2 64290   0.0190  22.3904 0001658 338.0243 199.8816  1.00272038  3655
COSMOS 2589             
1 64467U 25131A   26164.72494733 -.00000279  00000+0  00000+0 0  9994
2 64467   0.0440  85.5258 0000790 111.0994  64.3525  1.00262709  3523
CHINASAT 9C             
1 64470U 25132A   26165.06534125 -.00000238  00000+0  00000+0 0  9992
2 64470   0.0158 304.2122 0002543 137.0096 296.8800  1.00269858  4119
MTG-S1                  
1 64723U 25143A   26165.18901331 -.00000023  00000+0  00000+0 0  9997
2 64723   0.6060 338.2480 0000980  11.9645 336.8517  1.00271737  3382
DROR 1                  
1 64784U 25148A   26165.18883998 -.00000026  00000+0  00000+0 0  9990
2 64784   0.0269  54.2425 0002548 334.0335 298.1944  1.00271701  3267
SHIYAN-29               
1 65486U 25196A   26160.07536391 -.00000259  00000+0  00000+0 0  9996
2 65486  28.8121  18.6391 0010972 171.7452 188.2752  1.00256520  2799
NUSANTARA LIMA (NUSANT*)
1 65588U 25205A   26164.69245174 -.00000346  00000+0  00000+0 0  9995
2 65588   0.0479 148.3771 0000518  20.6783  95.0863  1.00266024  2683
TJS-20                  
1 66142U 25238A   26164.98810032  .00000036  00000+0  00000+0 0  9996
2 66142   5.4770 299.5674 0004514 161.7003 219.1621  1.00273629  2305
CMS-03 (GSAT-7R)        
1 66311U 25249B   26165.20426671  .00000000  00000+0  00000+0 0  9995
2 66311   0.0176 352.1739 0001481  87.5288 330.3281  1.00270240  2317
VIASAT-3 F2             
1 66454U 25261A   26164.60372797 -.00000222  00000+0  00000+0 0  9996
2 66454   0.0436 156.3674 0000190 171.0236  72.8878  1.00268992  2753
SHIJIAN-28 (SJ-28)      
1 66549U 25277A   26165.07019461 -.00000347  00000+0  00000+0 0  9994
2 66549   4.5466 272.1859 0000813 348.3545 143.8716  1.00264157  2126
TJS-22                  
1 66990U 25290A   26164.88494895  .00000004  00000+0  00000+0 0  9994
2 66990   1.5363 286.5124 0001909 330.5038  30.2260  1.00273081  1993
TJS-23                  
1 67226U 25306A   26164.61166601  .00000031  00000+0  00000+0 0  9997
2 67226   5.5959 297.5068 0005346 169.1900 190.9537  1.00274527  1855
FENGYUN 4C              
1 67246U 25312A   26165.21596677 -.00000314  00000+0  00000+0 0  9998
2 67246   0.0449 146.8955 0000674  62.7944 263.5714  1.00272273  1756
SHIJIAN-29A (SJ-29A)    
1 67302U 25315A   26165.19955606 -.00000061  00000+0  00000+0 0  9991
2 67302   3.3900  95.1825 0003091  25.6394 286.7270  1.00269522  1580
SHIJIAN-29B (SJ-29B)    
1 67403U 25315C   26164.99026700 -.00000060  00000+0  00000+0 0  9993
2 67403   3.3882  95.1799 0003670  32.4891 204.3731  1.00269369  1657
ELEKTRO-L 5             
1 67756U 26028A   26165.06004312 -.00000088  00000+0  00000+0 0  9990
2 67756   0.2571 310.4463 0001751 180.7679 228.8062  1.00271153  1224
JAM-E JAM 1             
1 67757U 26028B   26165.19638001  .00000165  00000+0  00000+0 0  9998
2 67757   0.2665 301.4213 0001204 299.6871 126.0115  1.00273958  1097
