OBJECT_NAME,OBJECT_ID,EPOCH,MEAN_MOTION,ECCENTRICITY,INCLINATION,RA_OF_ASC_NODE,ARG_OF_PERICENTER,MEAN_ANOMALY,EPHEMERIS_TYPE,CLASSIFICATION_TYPE,NORAD_CAT_ID,ELEMENT_SET_NO,REV_AT_EPOCH,BSTAR,MEAN_MOTION_DOT,MEAN_MOTION_DDOT
NUVIEW BRAVO,2024-252D,2026-06-14T04:09:20.653344,1.00270451,.00017993,0.0692,150.4075,331.2656,120.0258,0,U,62457,999,376,0,-.206E-5,0
THURAYA-4,2025-001A,2026-06-14T04:45:46.945728,1.00271700,.00002584,0.0219,55.1265,216.2436,106.8868,0,U,62483,999,414,0,.148E-5,0
SHIJIAN-25 (SJ-25),2025-002A,2026-06-13T18:30:22.105152,1.00269176,.0052236,5.1048,61.1838,173.2448,72.5687,0,U,62485,999,532,0,-.344E-5,0
TJS-14,2025-017A,2026-06-14T04:38:17.664000,1.00272968,.00009679,0.7896,295.4109,289.7777,125.2539,0,U,62804,999,524,0,.125E-5,0
SPAINSAT NG I,2025-021A,2026-06-14T04:41:24.865152,1.00269507,.00002372,0.0152,334.1683,288.7793,98.9084,0,U,62852,999,395,0,.16E-5,0
QZS-6 (MICHIBIKI-6),2025-023A,2026-06-14T01:33:35.531712,1.00271476,.00017054,0.0461,66.6220,23.5758,286.0955,0,U,62876,999,491,0,-.224E-5,0
ZHONGXING-10R,2025-036A,2026-06-14T01:39:19.980864,1.00273166,.00034464,0.0325,247.4670,253.2141,257.0503,0,U,63075,999,492,0,-.343E-5,0
TJS-15,2025-045A,2026-06-13T17:43:11.731872,1.00272543,.0004685,0.2796,85.4960,296.5136,240.2268,0,U,63157,999,472,0,-.254E-5,0
TIANLIAN 2-04,2025-062A,2026-06-13T23:02:54.842208,1.00271678,.0031724,4.3834,274.4888,10.2947,43.2625,0,U,63361,999,457,0,-.122E-5,0
TJS-16,2025-064A,2026-06-13T15:37:37.053120,1.00271351,.0003372,1.0888,81.4744,288.9856,286.5162,0,U,63397,999,435,0,-.95E-6,0
TJS-17,2025-073A,2026-06-13T15:38:44.445120,1.00271862,.0002099,1.0546,82.7223,295.8246,282.6321,0,U,63524,999,425,0,-.59E-6,0
TIANLIAN 2-05,2025-084A,2026-06-14T02:56:14.478720,1.00269039,.00031071,4.4593,279.8716,146.3928,260.5873,0,U,63662,999,435,0,.137E-5,0
TJS-19,2025-097A,2026-06-13T17:46:26.186304,1.00266676,.0002297,3.2925,317.3828,240.9676,111.5152,0,U,63924,999,410,0,-.266E-5,0
CHINASAT 3B,2025-106A,2026-06-14T07:53:33.961920,1.00271243,.00028025,0.0285,100.5780,21.7353,66.0309,0,U,64062,999,403,0,-.37E-6,0
SXM-10,2025-122A,2026-06-14T03:36:02.534976,1.00272038,.00016589,0.0190,22.3904,338.0243,199.8816,0,U,64290,999,365,0,-.8E-7,0
COSMOS 2589,2025-131A,2026-06-13T17:23:55.449312,1.00262709,.000079,0.0440,85.5258,111.0994,64.3525,0,U,64467,999,352,0,-.279E-5,0
CHINASAT 9C,2025-132A,2026-06-14T01:34:05.484000,1.00269858,.00025434,0.0158,304.2122,137.0096,296.8800,0,U,64470,999,411,0,-.238E-5,0
MTG-S1,2025-143A,2026-06-14T04:32:10.749984,1.00271737,.00009809,0.6060,338.2480,11.9645,336.8517,0,U,64723,999,338,0,-.23E-6,0
DROR 1,2025-148A,2026-06-14T04:31:55.774272,1.00271701,.00025481,0.0269,54.2425,334.0335,298.1944,0,U,64784,999,326,0,-.26E-6,0
SHIYAN-29,2025-196A,2026-06-09T01:48:31.441824,1.00256520,.00109724,28.8121,18.6391,171.7452,188.2752,0,U,65486,999,279,0,-.259E-5,0
NUSANTARA LIMA (NUSANTARA 5),2025-205A,2026-06-13T16:37:07.830336,1.00266024,.00005181,0.0479,148.3771,20.6783,95.0863,0,U,65588,999,268,0,-.346E-5,0
TJS-20,2025-238A,2026-06-13T23:42:51.867648,1.00273629,.00045149,5.4770,299.5674,161.7003,219.1621,0,U,66142,999,230,0,.36E-6,0
CMS-03 (GSAT-7R),2025-249B,2026-06-14T04:54:08.643744,1.00270240,.00014814,0.0176,352.1739,87.5288,330.3281,0,U,66311,999,231,0,0,0
VIASAT-3 F2,2025-261A,2026-06-13T14:29:22.096608,1.00268992,.00001902,0.0436,156.3674,171.0236,72.8878,0,U,66454,999,275,0,-.222E-5,0
SHIJIAN-28 (SJ-28),2025-277A,2026-06-14T01:41:04.814304,1.00264157,.00008139,4.5466,272.1859,348.3545,143.8716,0,U,66549,999,212,0,-.347E-5,0
TJS-22,2025-290A,2026-06-13T21:14:19.589280,1.00273081,.00019099,1.5363,286.5124,330.5038,30.2260,0,U,66990,999,199,0,.4E-7,0
TJS-23,2025-306A,2026-06-13T14:40:47.943264,1.00274527,.00053462,5.5959,297.5068,169.1900,190.9537,0,U,67226,999,185,0,.31E-6,0
FENGYUN 4C,2025-312A,2026-06-14T05:10:59.528928,1.00272273,.00006742,0.0449,146.8955,62.7944,263.5714,0,U,67246,999,175,0,-.314E-5,0
SHIJIAN-29A (SJ-29A),2025-315A,2026-06-14T04:47:21.643584,1.00269522,.00030916,3.3900,95.1825,25.6394,286.7270,0,U,67302,999,158,0,-.61E-6,0
SHIJIAN-29B (SJ-29B),2025-315C,2026-06-13T23:45:59.068800,1.00269369,.00036701,3.3882,95.1799,32.4891,204.3731,0,U,67403,999,165,0,-.6E-6,0
ELEKTRO-L 5,2026-028A,2026-06-14T01:26:27.725568,1.00271153,.00017512,0.2571,310.4463,180.7679,228.8062,0,U,67756,999,122,0,-.88E-6,0
JAM-E JAM 1,2026-028B,2026-06-14T04:42:47.232864,1.00273958,.00012045,0.2665,301.4213,299.6871,126.0115,0,U,67757,999,109,0,.165E-5,0
